NORAD_CAT_ID,OBJECT_NAME,OBJECT_TYPE,EPOCH,MEAN_MOTION,ECCENTRICITY,INCLINATION,RA_OF_ASC_NODE,ARG_OF_PERICENTER,MEAN_ANOMALY,BSTAR,MEAN_MOTION_DOT,MEAN_MOTION_DDOT,TLE_LINE0,TLE_LINE1,TLE_LINE2,SEMIMAJOR_AXIS,PERIOD,APOGEE,PERIGEE,DECAYED
55400.0,STARLINK-5632,PAYLOAD,2024-05-26 12:02:40,14.98331319,0.0002791,70.0002,268.8654,257.7938,102.2909,0.00017769,2.028e-05,0.0,0 STARLINK-5632,1 55400U 23014K   24147.50185607  .00002028  00000-0  17769-3 0  9999,2 55400  70.0002 268.8654 0002791 257.7938 102.2909 14.98331319 73425,6950.189,96.107,573.994,570.114,0.0
55400.0,STARLINK-5632,PAYLOAD,2024-05-26 18:27:12,14.98334247,0.0002925,70.0002,268.1921,264.975,95.1075,0.00017679,2.017e-05,0.0,0 STARLINK-5632,1 55400U 23014K   24147.76889385  .00002017  00000-0  17679-3 0  9999,2 55400  70.0002 268.1921 0002925 264.9750  95.1075 14.98334247 74402,6950.18,96.107,574.078,570.012,0.0
55400.0,STARLINK-5632,PAYLOAD,2024-05-27 12:04:41,14.98328988,0.0002661,70.0003,266.3403,260.6905,99.3954,4.7521e-05,4.74e-06,0.0,0 STARLINK-5632,1 55400U 23014K   24148.50325824  .00000474  00000-0  47521-4 0  9990,2 55400  70.0003 266.3403 0002661 260.6905  99.3954 14.98328988 73574,6950.196,96.107,573.91,570.212,0.0
55400.0,STARLINK-5632,PAYLOAD,2024-05-27 13:40:49,14.98328691,0.0002605,70.0003,266.1719,255.0418,105.0452,5.7325e-05,5.91e-06,0.0,0 STARLINK-5632,1 55400U 23014K   24148.57001838  .00000591  00000-0  57325-4 0  9996,2 55400  70.0003 266.1719 0002605 255.0418 105.0452 14.98328691 74522,6950.197,96.107,573.872,570.251,0.0
55400.0,STARLINK-5632,PAYLOAD,2024-05-27 16:53:05,14.9832906,0.0002781,70.0002,265.8353,263.4701,96.6142,5.0809e-05,5.13e-06,0.0,0 STARLINK-5632,1 55400U 23014K   24148.70353842  .00000513  00000-0  50809-4 0  9990,2 55400  70.0002 265.8353 0002781 263.4701  96.6142 14.98329060 74548,6950.196,96.107,573.994,570.128,0.0
55400.0,STARLINK-5632,PAYLOAD,2024-05-28 13:42:49,14.983361,0.0002709,70.0,263.6467,253.1674,106.9188,6.8099e-05,7.2e-06,0.0,0 STARLINK-5632,1 55400U 23014K   24149.57141041  .00000720  00000-0  68099-4 0  9992,2 55400  70.0000 263.6467 0002709 253.1674 106.9188 14.98336100 73731,6950.174,96.107,573.922,570.156,0.0
55400.0,STARLINK-5632,PAYLOAD,2024-05-28 16:55:05,14.98337459,0.0002771,70.0003,263.3108,258.9577,101.127,7.8837e-05,8.48e-06,0.0,0 STARLINK-5632,1 55400U 23014K   24149.70492889  .00000848  00000-0  78837-4 0  9998,2 55400  70.0003 263.3108 0002771 258.9577 101.1270 14.98337459 74690,6950.17,96.107,573.961,570.109,0.0
55400.0,STARLINK-5632,PAYLOAD,2024-05-29 10:32:34,14.98327881,0.000277,70.0009,261.4601,257.3395,102.7454,0.00010173,1.121e-05,0.0,0 STARLINK-5632,1 55400U 23014K   24150.43929288  .00001121  00000-0  10173-3 0  9991,2 55400  70.0009 261.4601 0002770 257.3395 102.7454 14.98327881 73860,6950.199,96.107,573.99,570.139,0.0
55400.0,STARLINK-5632,PAYLOAD,2024-05-29 13:44:51,14.9832827,0.0002756,70.0011,261.1239,256.1776,103.9076,0.00010599,1.172e-05,0.0,0 STARLINK-5632,1 55400U 23014K   24150.57281307  .00001172  00000-0  10599-3 0  9997,2 55400  70.0011 261.1239 0002756 256.1776 103.9076 14.98328270 74824,6950.198,96.107,573.979,570.148,0.0
55400.0,STARLINK-5632,PAYLOAD,2024-05-29 16:57:07,14.98336129,0.0002792,70.0005,260.7866,261.9017,98.1825,-0.00010622,-1.36e-05,0.0,0 STARLINK-5632,1 55400U 23014K   24150.70633211 -.00001360  00000-0 -10622-3 0  9995,2 55400  70.0005 260.7866 0002792 261.9017  98.1825 14.98336129 74841,6950.174,96.107,573.979,570.098,0.0
55400.0,STARLINK-5632,PAYLOAD,2024-05-30 10:34:35,14.98340207,0.0002882,70.0002,258.9347,260.633,99.4503,7.5159e-05,8.04e-06,0.0,0 STARLINK-5632,1 55400U 23014K   24151.44068486  .00000804  00000-0  75159-4 0  9990,2 55400  70.0002 258.9347 0002882 260.6330  99.4503 14.98340207 74013,6950.161,96.106,574.029,570.023,0.0
55400.0,STARLINK-5632,PAYLOAD,2024-05-30 16:59:07,14.98342979,0.0002869,70.0002,258.2615,261.0261,99.0574,0.00010649,1.178e-05,0.0,0 STARLINK-5632,1 55400U 23014K   24151.70772137  .00001178  00000-0  10649-3 0  9991,2 55400  70.0002 258.2615 0002869 261.0261  99.0574 14.98342979 74996,6950.153,96.106,574.012,570.024,0.0
55400.0,STARLINK-5632,PAYLOAD,2024-05-31 12:12:44,14.98330407,0.0002913,70.0005,256.2429,255.3839,104.6997,5.8351e-05,6.03e-06,0.0,0 STARLINK-5632,1 55400U 23014K   24152.50884894  .00000603  00000-0  58351-4 0  9999,2 55400  70.0005 256.2429 0002913 255.3839 104.6997 14.98330407 74172,6950.192,96.107,574.081,570.032,0.0
55400.0,STARLINK-5632,PAYLOAD,2024-05-31 13:48:52,14.98331317,0.0003086,69.9998,256.0724,264.4928,95.5879,4.8307e-05,4.83e-06,0.0,0 STARLINK-5632,1 55400U 23014K   24152.57560843  .00000483  00000-0  48307-4 0  9997,2 55400  69.9998 256.0724 0003086 264.4928  95.5879 14.98331317 75122,6950.189,96.107,574.199,569.909,0.0
55400.0,STARLINK-5632,PAYLOAD,2024-05-31 17:01:08,14.9833318,0.0003063,69.9999,255.7361,263.6685,96.4125,6.911e-05,7.32e-06,0.0,0 STARLINK-5632,1 55400U 23014K   24152.70912656  .00000732  00000-0  69110-4 0  9997,2 55400  69.9999 255.7361 0003063 263.6685  96.4125 14.98333180 75148,6950.183,96.107,574.177,569.919,0.0
55400.0,STARLINK-5632,PAYLOAD,2024-06-01 12:14:45,14.98331557,0.0003054,69.9999,253.7165,265.3504,94.7306,-4.4306e-05,-6.22e-06,0.0,0 STARLINK-5632,1 55400U 23014K   24153.51024978 -.00000622  00000-0 -44306-4 0  9998,2 55400  69.9999 253.7165 0003054 265.3504  94.7306 14.98331557 74324,6950.188,96.107,574.176,569.93,0.0
55400.0,STARLINK-5632,PAYLOAD,2024-06-01 13:50:53,14.98339317,0.0002701,70.0,253.5483,257.1929,102.8929,-0.00021943,-2.711e-05,0.0,0 STARLINK-5632,1 55400U 23014K   24153.57700880 -.00002711  00000-0 -21943-3 0  9999,2 55400  70.0000 253.5483 0002701 257.1929 102.8929 14.98339317 75278,6950.164,96.106,573.906,570.152,0.0
55400.0,STARLINK-5632,PAYLOAD,2024-06-01 23:27:41,14.98374045,0.0003271,69.9998,252.5378,262.1918,97.887,-0.00087608,-0.00010543,0.0,0 STARLINK-5632,1 55400U 23014K   24153.97755819 -.00010543  00000-0 -87608-3 0  9997,2 55400  69.9998 252.5378 0003271 262.1918  97.8870 14.98374045 74397,6950.057,96.104,574.195,569.648,0.0
55400.0,STARLINK-5632,PAYLOAD,2024-06-02 12:16:46,14.98327051,0.000306,69.9997,251.191,265.0912,94.9897,3.5674e-05,3.33e-06,0.0,0 STARLINK-5632,1 55400U 23014K   24154.51165245  .00000333  00000-0  35674-4 0  9997,2 55400  69.9997 251.1910 0003060 265.0912  94.9897 14.98327051 74476,6950.202,96.107,574.194,569.94,0.0
55400.0,STARLINK-5632,PAYLOAD,2024-06-03 12:18:47,14.98334752,0.0003124,69.9996,248.6659,268.1711,91.909,0.00015351,1.739e-05,0.0,0 STARLINK-5632,1 55400U 23014K   24155.51304620  .00001739  00000-0  15351-3 0  9990,2 55400  69.9996 248.6659 0003124 268.1711  91.9090 14.98334752 74623,6950.178,96.107,574.214,569.872,0.0
55400.0,STARLINK-5632,PAYLOAD,2024-06-04 12:20:47,14.98336731,0.0003307,69.999,246.1401,270.7238,89.3542,0.00010866,1.204e-05,0.0,0 STARLINK-5632,1 55400U 23014K   24156.51444398  .00001204  00000-0  10866-3 0  9991,2 55400  69.9990 246.1401 0003307 270.7238  89.3542 14.98336731 74779,6950.172,96.107,574.335,569.739,0.0
55400.0,STARLINK-5632,PAYLOAD,2024-06-04 15:33:03,14.98338995,0.0003211,69.9992,245.8039,270.7946,89.2845,0.0001398,1.576e-05,0.0,0 STARLINK-5632,1 55400U 23014K   24156.64796161  .00001576  00000-0  13980-3 0  9995,2 55400  69.9992 245.8039 0003211 270.7946  89.2845 14.98338995 75730,6950.165,96.106,574.262,569.798,0.0
55400.0,STARLINK-5632,PAYLOAD,2024-06-05 12:22:49,14.98320628,0.0003089,69.999,243.6163,270.9589,89.1216,-0.00022698,-2.8e-05,0.0,0 STARLINK-5632,1 55400U 23014K   24157.51585201 -.00002800  00000-0 -22698-3 0  9992,2 55400  69.9990 243.6163 0003089 270.9589  89.1216 14.98320628 74925,6950.222,96.108,574.234,569.94,0.0
55400.0,STARLINK-5632,PAYLOAD,2024-06-05 15:35:05,14.98321556,0.0003002,69.9992,243.2798,270.9653,89.1162,-0.0002131,-2.634e-05,0.0,0 STARLINK-5632,1 55400U 23014K   24157.64937143 -.00002634  00000-0 -21310-3 0  9997,2 55400  69.9992 243.2798 0003002 270.9653  89.1162 14.98321556 75881,6950.219,96.108,574.17,569.998,0.0
55400.0,STARLINK-5632,PAYLOAD,2024-06-06 12:24:50,14.98329207,0.0003079,69.999,241.0904,271.2422,88.8385,-4.1515e-05,-5.88e-06,0.0,0 STARLINK-5632,1 55400U 23014K   24158.51724745 -.00000588  00000-0 -41515-4 0  9992,2 55400  69.9990 241.0904 0003079 271.2422  88.8385 14.98329207 75071,6950.195,96.107,574.2,569.92,0.0
55400.0,STARLINK-5632,PAYLOAD,2024-06-07 09:14:35,14.98322471,0.000288,70.0004,238.9021,271.3157,88.7672,0.00042311,4.958e-05,0.0,0 STARLINK-5632,1 55400U 23014K   24159.38513050  .00004958  00000-0  42311-3 0  9990,2 55400  70.0004 238.9021 0002880 271.3157  88.7672 14.98322471 76143,6950.216,96.107,574.083,570.08,0.0
55400.0,STARLINK-5632,PAYLOAD,2024-06-07 15:39:07,14.98336667,0.0002882,70.0007,238.2289,271.7669,88.316,0.00069635,8.227e-05,0.0,0 STARLINK-5632,1 55400U 23014K   24159.65216801  .00008227  00000-0  69635-3 0  9995,2 55400  70.0007 238.2289 0002882 271.7669  88.3160 14.98336667 75249,6950.172,96.107,574.04,570.034,0.0
55400.0,STARLINK-5632,PAYLOAD,2024-06-07 22:03:39,14.98340025,0.0002858,70.0008,237.5552,274.359,85.7242,0.00063738,7.522e-05,0.0,0 STARLINK-5632,1 55400U 23014K   24159.91920708  .00007522  00000-0  63738-3 0  9997,2 55400  70.0008 237.5552 0002858 274.3590  85.7242 14.98340025 76224,6950.162,96.106,574.013,570.041,0.0
55400.0,STARLINK-5632,PAYLOAD,2024-06-08 12:28:51,14.9834295,0.0002794,70.0008,236.0414,271.8927,88.1912,0.00042996,5.043e-05,0.0,0 STARLINK-5632,1 55400U 23014K   24160.52004341  .00005043  00000-0  42996-3 0  9991,2 55400  70.0008 236.0414 0002794 271.8927  88.1912 14.98342950 76310,6950.153,96.106,573.96,570.076,0.0
55400.0,STARLINK-5632,PAYLOAD,2024-06-08 15:41:07,14.98346544,0.0002773,70.0009,235.7048,271.6316,88.4526,0.00047299,5.557e-05,0.0,0 STARLINK-5632,1 55400U 23014K   24160.65356122  .00005557  00000-0  47299-3 0  9993,2 55400  70.0009 235.7048 0002773 271.6316  88.4526 14.98346544 75391,6950.142,96.106,573.934,570.079,0.0
